[{"OBJECT_NAME":"STARLINK-11509 [DTC]","OBJECT_ID":"2025-035H","EPOCH":"2026-03-02T08:21:37.606752","MEAN_MOTION":15.70873124,"ECCENTRICITY":0.00013576,"INCLINATION":43.0002,"RA_OF_ASC_NODE":59.8245,"ARG_OF_PERICENTER":283.7807,"MEAN_ANOMALY":76.291,"EPHEMERIS_TYPE":0,"CLASSIFICATION_TYPE":"U","NORAD_CAT_ID":63059,"ELEMENT_SET_NO":999,"REV_AT_EPOCH":5994,"BSTAR":0.0014661899,"MEAN_MOTION_DOT":0.00192368,"MEAN_MOTION_DDOT":0},{"OBJECT_NAME":"STARLINK-11403 [DTC]","OBJECT_ID":"2025-035J","EPOCH":"2026-03-02T11:09:27.468864","MEAN_MOTION":15.70874736,"ECCENTRICITY":0.00010766,"INCLINATION":42.9996,"RA_OF_ASC_NODE":58.973,"ARG_OF_PERICENTER":255.2433,"MEAN_ANOMALY":104.8315,"EPHEMERIS_TYPE":0,"CLASSIFICATION_TYPE":"U","NORAD_CAT_ID":63060,"ELEMENT_SET_NO":999,"REV_AT_EPOCH":6008,"BSTAR":0.0016487439,"MEAN_MOTION_DOT":0.0021704,"MEAN_MOTION_DDOT":0},{"OBJECT_NAME":"STARLINK-11409 [DTC]","OBJECT_ID":"2025-035K","EPOCH":"2026-03-02T09:46:51.277152","MEAN_MOTION":15.70866774,"ECCENTRICITY":0.00012985,"INCLINATION":42.9989,"RA_OF_ASC_NODE":59.4048,"ARG_OF_PERICENTER":248.2917,"MEAN_ANOMALY":111.7813,"EPHEMERIS_TYPE":0,"CLASSIFICATION_TYPE":"U","NORAD_CAT_ID":63061,"ELEMENT_SET_NO":999,"REV_AT_EPOCH":6007,"BSTAR":0.0012474834,"MEAN_MOTION_DOT":0.00162979,"MEAN_MOTION_DDOT":0},{"OBJECT_NAME":"STARLINK-11412 [DTC]","OBJECT_ID":"2025-035L","EPOCH":"2026-03-02T09:30:15.146496","MEAN_MOTION":15.70872727,"ECCENTRICITY":0.00015242,"INCLINATION":42.9994,"RA_OF_ASC_NODE":59.3123,"ARG_OF_PERICENTER":266.9274,"MEAN_ANOMALY":93.142,"EPHEMERIS_TYPE":0,"CLASSIFICATION_TYPE":"U","NORAD_CAT_ID":63062,"ELEMENT_SET_NO":999,"REV_AT_EPOCH":6007,"BSTAR":0.0015004008,"MEAN_MOTION_DOT":0.00196974,"MEAN_MOTION_DDOT":0},{"OBJECT_NAME":"STARLINK-11399 [DTC]","OBJECT_ID":"2025-035M","EPOCH":"2026-03-02T08:59:39.955200","MEAN_MOTION":15.70936508,"ECCENTRICITY":0.00016756,"INCLINATION":42.9994,"RA_OF_ASC_NODE":59.14,"ARG_OF_PERICENTER":262.9397,"MEAN_ANOMALY":97.1281,"EPHEMERIS_TYPE":0,"CLASSIFICATION_TYPE":"U","NORAD_CAT_ID":63063,"ELEMENT_SET_NO":999,"REV_AT_EPOCH":6007,"BSTAR":0.0025668372,"MEAN_MOTION_DOT":0.0034432,"MEAN_MOTION_DDOT":0},{"OBJECT_NAME":"STARLINK-11408 [DTC]","OBJECT_ID":"2025-035N","EPOCH":"2026-03-02T08:52:01.930656","MEAN_MOTION":15.70898414,"ECCENTRICITY":9.771e-5,"INCLINATION":43.0002,"RA_OF_ASC_NODE":59.0971,"ARG_OF_PERICENTER":301.5505,"MEAN_ANOMALY":58.5267,"EPHEMERIS_TYPE":0,"CLASSIFICATION_TYPE":"U","NORAD_CAT_ID":63064,"ELEMENT_SET_NO":999,"REV_AT_EPOCH":6007,"BSTAR":0.0021473934,"MEAN_MOTION_DOT":0.0028547,"MEAN_MOTION_DDOT":0},{"OBJECT_NAME":"STARLINK-33635","OBJECT_ID":"2025-035P","EPOCH":"2026-03-02T15:37:53.639328","MEAN_MOTION":15.27585512,"ECCENTRICITY":0.0001268,"INCLINATION":43.0002,"RA_OF_ASC_NODE":186.8004,"ARG_OF_PERICENTER":287.9185,"MEAN_ANOMALY":72.1528,"EPHEMERIS_TYPE":0,"CLASSIFICATION_TYPE":"U","NORAD_CAT_ID":63065,"ELEMENT_SET_NO":999,"REV_AT_EPOCH":5865,"BSTAR":0.0012502,"MEAN_MOTION_DOT":0.00034306,"MEAN_MOTION_DDOT":0},{"OBJECT_NAME":"STARLINK-33622","OBJECT_ID":"2025-035Q","EPOCH":"2026-03-02T08:55:21.334944","MEAN_MOTION":15.27591332,"ECCENTRICITY":4.755e-5,"INCLINATION":42.9972,"RA_OF_ASC_NODE":188.1327,"ARG_OF_PERICENTER":244.8764,"MEAN_ANOMALY":115.2038,"EPHEMERIS_TYPE":0,"CLASSIFICATION_TYPE":"U","NORAD_CAT_ID":63066,"ELEMENT_SET_NO":999,"REV_AT_EPOCH":5861,"BSTAR":0.00096507462,"MEAN_MOTION_DOT":0.00026399,"MEAN_MOTION_DDOT":0},{"OBJECT_NAME":"STARLINK-33628","OBJECT_ID":"2025-035R","EPOCH":"2026-03-02T09:47:10.086432","MEAN_MOTION":15.27577177,"ECCENTRICITY":0.00016569,"INCLINATION":43.0025,"RA_OF_ASC_NODE":188.4148,"ARG_OF_PERICENTER":243.2923,"MEAN_ANOMALY":116.7759,"EPHEMERIS_TYPE":0,"CLASSIFICATION_TYPE":"U","NORAD_CAT_ID":63067,"ELEMENT_SET_NO":999,"REV_AT_EPOCH":5861,"BSTAR":0.0011095968,"MEAN_MOTION_DOT":0.00030395,"MEAN_MOTION_DDOT":0},{"OBJECT_NAME":"STARLINK-33627","OBJECT_ID":"2025-035S","EPOCH":"2026-03-02T09:36:03.833568","MEAN_MOTION":15.27570913,"ECCENTRICITY":0.00016901,"INCLINATION":43.0033,"RA_OF_ASC_NODE":188.3551,"ARG_OF_PERICENTER":255.4979,"MEAN_ANOMALY":104.5686,"EPHEMERIS_TYPE":0,"CLASSIFICATION_TYPE":"U","NORAD_CAT_ID":63068,"ELEMENT_SET_NO":999,"REV_AT_EPOCH":5860,"BSTAR":0.0010589471,"MEAN_MOTION_DOT":0.00028984,"MEAN_MOTION_DDOT":0},{"OBJECT_NAME":"STARLINK-33620","OBJECT_ID":"2025-035T","EPOCH":"2026-03-02T09:30:30.784896","MEAN_MOTION":15.27591438,"ECCENTRICITY":0.00017892,"INCLINATION":43.003,"RA_OF_ASC_NODE":188.3266,"ARG_OF_PERICENTER":254.7507,"MEAN_ANOMALY":105.3147,"EPHEMERIS_TYPE":0,"CLASSIFICATION_TYPE":"U","NORAD_CAT_ID":63069,"ELEMENT_SET_NO":999,"REV_AT_EPOCH":5860,"BSTAR":0.0014663438,"MEAN_MOTION_DOT":0.00040324,"MEAN_MOTION_DDOT":0},{"OBJECT_NAME":"STARLINK-33604","OBJECT_ID":"2025-035U","EPOCH":"2026-03-02T17:58:17.222880","MEAN_MOTION":15.27617658,"ECCENTRICITY":0.0001653,"INCLINATION":43.0001,"RA_OF_ASC_NODE":186.6753,"ARG_OF_PERICENTER":290.6109,"MEAN_ANOMALY":69.4565,"EPHEMERIS_TYPE":0,"CLASSIFICATION_TYPE":"U","NORAD_CAT_ID":63070,"ELEMENT_SET_NO":999,"REV_AT_EPOCH":5865,"BSTAR":0.00098746,"MEAN_MOTION_DOT":0.00027042,"MEAN_MOTION_DDOT":0},{"OBJECT_NAME":"STARLINK-33624","OBJECT_ID":"2025-035V","EPOCH":"2026-03-02T16:04:29.161344","MEAN_MOTION":15.27603144,"ECCENTRICITY":0.0001807,"INCLINATION":43.0012,"RA_OF_ASC_NODE":183.4693,"ARG_OF_PERICENTER":268.0034,"MEAN_ANOMALY":92.061,"EPHEMERIS_TYPE":0,"CLASSIFICATION_TYPE":"U","NORAD_CAT_ID":63071,"ELEMENT_SET_NO":999,"REV_AT_EPOCH":5858,"BSTAR":0.00088027,"MEAN_MOTION_DOT":0.00024057,"MEAN_MOTION_DDOT":0},{"OBJECT_NAME":"STARLINK-33623","OBJECT_ID":"2025-035W","EPOCH":"2026-03-02T09:58:16.384224","MEAN_MOTION":15.27600602,"ECCENTRICITY":0.00013587,"INCLINATION":42.9986,"RA_OF_ASC_NODE":188.4663,"ARG_OF_PERICENTER":206.5169,"MEAN_ANOMALY":153.5614,"EPHEMERIS_TYPE":0,"CLASSIFICATION_TYPE":"U","NORAD_CAT_ID":63072,"ELEMENT_SET_NO":999,"REV_AT_EPOCH":5861,"BSTAR":0.00099119571,"MEAN_MOTION_DOT":0.00027131,"MEAN_MOTION_DDOT":0},{"OBJECT_NAME":"STARLINK-33586","OBJECT_ID":"2025-035X","EPOCH":"2026-03-02T09:07:50.709792","MEAN_MOTION":15.27575793,"ECCENTRICITY":0.00018981,"INCLINATION":43.0028,"RA_OF_ASC_NODE":181.2749,"ARG_OF_PERICENTER":253.5998,"MEAN_ANOMALY":106.4645,"EPHEMERIS_TYPE":0,"CLASSIFICATION_TYPE":"U","NORAD_CAT_ID":63073,"ELEMENT_SET_NO":999,"REV_AT_EPOCH":5869,"BSTAR":0.00049049024,"MEAN_MOTION_DOT":0.00013258,"MEAN_MOTION_DDOT":0},{"OBJECT_NAME":"STARLINK-33605","OBJECT_ID":"2025-035Y","EPOCH":"2026-03-02T15:21:14.197824","MEAN_MOTION":15.27585412,"ECCENTRICITY":0.0001829,"INCLINATION":42.9999,"RA_OF_ASC_NODE":186.7045,"ARG_OF_PERICENTER":285.9684,"MEAN_ANOMALY":74.0966,"EPHEMERIS_TYPE":0,"CLASSIFICATION_TYPE":"U","NORAD_CAT_ID":63074,"ELEMENT_SET_NO":999,"REV_AT_EPOCH":5864,"BSTAR":0.0013583,"MEAN_MOTION_DOT":0.00037311,"MEAN_MOTION_DDOT":0}]
