STARLINK-11509 [DTC]    
1 63059U 25035H   26061.34835193  .00192368  00000+0  14662-2 0  9998
2 63059  43.0002  59.8245 0001357 283.7807  76.2910 15.70873124 59948
STARLINK-11403 [DTC]    
1 63060U 25035J   26061.46490126  .00217040  00000+0  16487-2 0  9998
2 63060  42.9996  58.9730 0001076 255.2433 104.8315 15.70874736 60080
STARLINK-11409 [DTC]    
1 63061U 25035K   26061.40753793  .00162979  00000+0  12475-2 0  9998
2 63061  42.9989  59.4048 0001298 248.2917 111.7813 15.70866774 60078
STARLINK-11412 [DTC]    
1 63062U 25035L   26061.39600864  .00196974  00000+0  15004-2 0  9990
2 63062  42.9994  59.3123 0001524 266.9274  93.1420 15.70872727 60075
STARLINK-11399 [DTC]    
1 63063U 25035M   26061.37476800  .00344320  00000+0  25668-2 0  9997
2 63063  42.9994  59.1400 0001675 262.9397  97.1281 15.70936508 60078
STARLINK-11408 [DTC]    
1 63064U 25035N   26061.36946679  .00285470  00000+0  21474-2 0  9994
2 63064  43.0002  59.0971 0000977 301.5505  58.5267 15.70898414 60076
STARLINK-33635          
1 63065U 25035P   26061.65131527  .00034306  00000+0  12502-2 0  9997
2 63065  43.0002 186.8004 0001268 287.9185  72.1528 15.27585512 58655
STARLINK-33622          
1 63066U 25035Q   26061.37177471  .00026399  00000+0  96507-3 0  9996
2 63066  42.9972 188.1327 0000475 244.8764 115.2038 15.27591332 58615
STARLINK-33628          
1 63067U 25035R   26061.40775563  .00030395  00000+0  11096-2 0  9997
2 63067  43.0025 188.4148 0001656 243.2923 116.7759 15.27577177 58610
STARLINK-33627          
1 63068U 25035S   26061.40004437  .00028984  00000+0  10589-2 0  9990
2 63068  43.0033 188.3551 0001690 255.4979 104.5686 15.27570913 58605
STARLINK-33620          
1 63069U 25035T   26061.39618964  .00040324  00000+0  14663-2 0  9994
2 63069  43.0030 188.3266 0001789 254.7507 105.3147 15.27591438 58600
STARLINK-33604          
1 63070U 25035U   26061.74881045  .00027042  00000+0  98746-3 0  9994
2 63070  43.0001 186.6753 0001653 290.6109  69.4565 15.27617658 58651
STARLINK-33624          
1 63071U 25035V   26061.66978196  .00024057  00000+0  88027-3 0  9994
2 63071  43.0012 183.4693 0001807 268.0034  92.0610 15.27603144 58589
STARLINK-33623          
1 63072U 25035W   26061.41546741  .00027131  00000+0  99120-3 0  9997
2 63072  42.9986 188.4663 0001358 206.5169 153.5614 15.27600602 58614
STARLINK-33586          
1 63073U 25035X   26061.38044803  .00013258  00000+0  49049-3 0  9996
2 63073  43.0028 181.2749 0001898 253.5998 106.4645 15.27575793 58692
STARLINK-33605          
1 63074U 25035Y   26061.63974766  .00037311  00000+0  13583-2 0  9994
2 63074  42.9999 186.7045 0001829 285.9684  74.0966 15.27585412 58642
